{"type": "FeatureCollection", "features": [ {"type": "Feature", "properties": {"norad_id": 38552, "name": "METEOSAT-10 (MSG-3)", "group": "weather", "lat": 3.79430680138739, "lon": 178.69387994294092, "alt_km": 35786.74026572336, "timestamp": "2025-12-22T05:49:03.124601+00:00", "meta": {"OBJECT_NAME": "METEOSAT-10 (MSG-3)", "OBJECT_ID": "2012-035B", "EPOCH": "2025-12-21T08:03:51.374592", "MEAN_MOTION": 1.00276748, "ECCENTRICITY": 7.023e-05, "INCLINATION": 4.2476, "RA_OF_ASC_NODE": 61.6997, "ARG_OF_PERICENTER": 268.1719, "MEAN_ANOMALY": 241.5558, "EPHEMERIS_TYPE": 0, "CLASSIFICATION_TYPE": "U", "NORAD_CAT_ID": 38552, "ELEMENT_SET_NO": 999, "REV_AT_EPOCH": 4907, "BSTAR": 0, "MEAN_MOTION_DOT": 1.6e-07, "MEAN_MOTION_DDOT": 0}, "tle": {"line1": "1 38552U 12035B   25355.33601128  .00000016  00000+0  00000+0 0  9993", "line2": "2 38552   4.2476  61.6997 0000702 268.1719 241.5558  1.00276748 49074"}}, "geometry": {"type": "Point", "coordinates": [178.69387994294092, 3.79430680138739]}}, {"type": "Feature", "properties": {"norad_id": 38771, "name": "METOP-B", "group": "weather", "lat": 80.5035641401064, "lon": -19.891784341479596, "alt_km": 811.3266519905501, "timestamp": "2025-12-22T05:49:03.124613+00:00", "meta": {"OBJECT_NAME": "METOP-B", "OBJECT_ID": "2012-049A", "EPOCH": "2025-12-21T19:16:38.436096", "MEAN_MOTION": 14.21411605, "ECCENTRICITY": 0.0003192, "INCLINATION": 98.6785, "RA_OF_ASC_NODE": 45.6078, "ARG_OF_PERICENTER": 124.9401, "MEAN_ANOMALY": 235.2076, "EPHEMERIS_TYPE": 0, "CLASSIFICATION_TYPE": "U", "NORAD_CAT_ID": 38771, "ELEMENT_SET_NO": 999, "REV_AT_EPOCH": 68806, "BSTAR": 7.4969e-05, "MEAN_MOTION_DOT": 1.2e-06, "MEAN_MOTION_DDOT": 0}, "tle": {"line1": "1 38771U 12049A   25355.80322264  .00000120  00000+0  74969-4 0  9990", "line2": "2 38771  98.6785  45.6078 0003192 124.9401 235.2076 14.21411605688065"}}, "geometry": {"type": "Point", "coordinates": [-19.891784341479596, 80.5035641401064]}}, {"type": "Feature", "properties": {"norad_id": 39216, "name": "INSAT-3D", "group": "weather", "lat": -1.0222989712186812, "lon": -52.17860876578223, "alt_km": 35782.353026419405, "timestamp": "2025-12-22T05:49:03.124626+00:00", "meta": {"OBJECT_NAME": "INSAT-3D", "OBJECT_ID": "2013-038B", "EPOCH": "2025-12-21T17:14:17.039328", "MEAN_MOTION": 1.00276409, "ECCENTRICITY": 0.0001809, "INCLINATION": 1.4667, "RA_OF_ASC_NODE": 84.896, "ARG_OF_PERICENTER": 152.8717, "MEAN_ANOMALY": 240.8316, "EPHEMERIS_TYPE": 0, "CLASSIFICATION_TYPE": "U", "NORAD_CAT_ID": 39216, "ELEMENT_SET_NO": 999, "REV_AT_EPOCH": 4530, "BSTAR": 0, "MEAN_MOTION_DOT": -3.17e-06, "MEAN_MOTION_DDOT": 0}, "tle": {"line1": "1 39216U 13038B   25355.71825277 -.00000317  00000+0  00000+0 0  9995", "line2": "2 39216   1.4667  84.8960 0001809 152.8717 240.8316  1.00276409 45306"}}, "geometry": {"type": "Point", "coordinates": [-52.17860876578223, -1.0222989712186812]}}, {"type": "Feature", "properties": {"norad_id": 39260, "name": "FENGYUN 3C", "group": "weather", "lat": 41.58226955015533, "lon": 161.0624529768354, "alt_km": 827.3616484501244, "timestamp": "2025-12-22T05:49:03.124638+00:00", "meta": {"OBJECT_NAME": "FENGYUN 3C", "OBJECT_ID": "2013-052A", "EPOCH": "2025-12-21T20:41:15.033120", "MEAN_MOTION": 14.15698842, "ECCENTRICITY": 0.0014785, "INCLINATION": 98.4773, "RA_OF_ASC_NODE": 333.0963, "ARG_OF_PERICENTER": 169.5568, "MEAN_ANOMALY": 190.5917, "EPHEMERIS_TYPE": 0, "CLASSIFICATION_TYPE": "U", "NORAD_CAT_ID": 39260, "ELEMENT_SET_NO": 999, "REV_AT_EPOCH": 63347, "BSTAR": 5.3405e-05, "MEAN_MOTION_DOT": 6.4e-07, "MEAN_MOTION_DDOT": 0}, "tle": {"line1": "1 39260U 13052A   25355.86197955  .00000064  00000+0  53405-4 0  9991", "line2": "2 39260  98.4773 333.0963 0014785 169.5568 190.5917 14.15698842633475"}}, "geometry": {"type": "Point", "coordinates": [161.0624529768354, 41.58226955015533]}}, {"type": "Feature", "properties": {"norad_id": 40069, "name": "METEOR-M 2", "group": "weather", "lat": -45.761326629177226, "lon": -17.713445417932913, "alt_km": 830.1041044364183, "timestamp": "2025-12-22T05:49:03.124649+00:00", "meta": {"OBJECT_NAME": "METEOR-M 2", "OBJECT_ID": "2014-037A", "EPOCH": "2025-12-21T21:35:18.536640", "MEAN_MOTION": 14.21389422, "ECCENTRICITY": 0.0005463, "INCLINATION": 98.4906, "RA_OF_ASC_NODE": 333.1327, "ARG_OF_PERICENTER": 180.7154, "MEAN_ANOMALY": 179.4017, "EPHEMERIS_TYPE": 0, "CLASSIFICATION_TYPE": "U", "NORAD_CAT_ID": 40069, "ELEMENT_SET_NO": 999, "REV_AT_EPOCH": 59413, "BSTAR": -1.7222e-05, "MEAN_MOTION_DOT": -8e-07, "MEAN_MOTION_DDOT": 0}, "tle": {"line1": "1 40069U 14037A   25355.89952010 -.00000080  00000+0 -17222-4 0  9995", "line2": "2 40069  98.4906 333.1327 0005463 180.7154 179.4017 14.21389422594130"}}, "geometry": {"type": "Point", "coordinates": [-17.713445417932913, -45.761326629177226]}}, {"type": "Feature", "properties": {"norad_id": 40267, "name": "HIMAWARI-8", "group": "weather", "lat": -0.022809027700696476, "lon": -41.028495184785086, "alt_km": 35782.98569804322, "timestamp": "2025-12-22T05:49:03.124662+00:00", "meta": {"OBJECT_NAME": "HIMAWARI-8", "OBJECT_ID": "2014-060A", "EPOCH": "2025-12-21T17:43:38.586720", "MEAN_MOTION": 1.002705, "ECCENTRICITY": 9e-05, "INCLINATION": 0.0386, "RA_OF_ASC_NODE": 132.208, "ARG_OF_PERICENTER": 164.3833, "MEAN_ANOMALY": 200.5374, "EPHEMERIS_TYPE": 0, "CLASSIFICATION_TYPE": "U", "NORAD_CAT_ID": 40267, "ELEMENT_SET_NO": 999, "REV_AT_EPOCH": 4098, "BSTAR": 0, "MEAN_MOTION_DOT": -2.53e-06, "MEAN_MOTION_DDOT": 0}, "tle": {"line1": "1 40267U 14060A   25355.73864105 -.00000253  00000+0  00000+0 0  9993", "line2": "2 40267   0.0386 132.2080 0000900 164.3833 200.5374  1.00270500 40988"}}, "geometry": {"type": "Point", "coordinates": [-41.028495184785086, -0.022809027700696476]}}, {"type": "Feature", "properties": {"norad_id": 40367, "name": "FENGYUN 2G", "group": "weather", "lat": -2.011547076845348, "lon": -82.56052675228423, "alt_km": 35778.268692923855, "timestamp": "2025-12-22T05:49:03.124674+00:00", "meta": {"OBJECT_NAME": "FENGYUN 2G", "OBJECT_ID": "2014-090A", "EPOCH": "2025-12-21T20:54:57.485088", "MEAN_MOTION": 1.0026073, "ECCENTRICITY": 0.000265, "INCLINATION": 5.1899, "RA_OF_ASC_NODE": 74.9937, "ARG_OF_PERICENTER": 203.4867, "MEAN_ANOMALY": 225.1698, "EPHEMERIS_TYPE": 0, "CLASSIFICATION_TYPE": "U", "NORAD_CAT_ID": 40367, "ELEMENT_SET_NO": 999, "REV_AT_EPOCH": 4022, "BSTAR": 0, "MEAN_MOTION_DOT": -2.79e-06, "MEAN_MOTION_DDOT": 0}, "tle": {"line1": "1 40367U 14090A   25355.87149867 -.00000279  00000+0  00000+0 0  9991", "line2": "2 40367   5.1899  74.9937 0002650 203.4867 225.1698  1.00260730 40226"}}, "geometry": {"type": "Point", "coordinates": [-82.56052675228423, -2.011547076845348]}}, {"type": "Feature", "properties": {"norad_id": 40732, "name": "METEOSAT-11 (MSG-4)", "group": "weather", "lat": 2.4916275957369507, "lon": -172.477174313961, "alt_km": 35783.03962794128, "timestamp": "2025-12-22T05:49:03.124687+00:00", "meta": {"OBJECT_NAME": "METEOSAT-11 (MSG-4)", "OBJECT_ID": "2015-034A", "EPOCH": "2025-12-21T18:22:41.415168", "MEAN_MOTION": 1.00270316, "ECCENTRICITY": 7.94e-05, "INCLINATION": 2.7588, "RA_OF_ASC_NODE": 71.9774, "ARG_OF_PERICENTER": 137.3377, "MEAN_ANOMALY": 166.1308, "EPHEMERIS_TYPE": 0, "CLASSIFICATION_TYPE": "U", "NORAD_CAT_ID": 40732, "ELEMENT_SET_NO": 999, "REV_AT_EPOCH": 543, "BSTAR": 0, "MEAN_MOTION_DOT": 8.2e-07, "MEAN_MOTION_DDOT": 0}, "tle": {"line1": "1 40732U 15034A   25355.76575712  .00000082  00000+0  00000+0 0  9997", "line2": "2 40732   2.7588  71.9774 0000794 137.3377 166.1308  1.00270316  5431"}}, "geometry": {"type": "Point", "coordinates": [-172.477174313961, 2.4916275957369507]}}, {"type": "Feature", "properties": {"norad_id": 41105, "name": "ELEKTRO-L 2", "group": "weather", "lat": 6.261140579579312, "lon": 163.81197593531962, "alt_km": 35792.01335621118, "timestamp": "2025-12-22T05:49:03.124700+00:00", "meta": {"OBJECT_NAME": "ELEKTRO-L 2", "OBJECT_ID": "2015-074A", "EPOCH": "2025-12-21T09:42:19.444608", "MEAN_MOTION": 1.00272503, "ECCENTRICITY": 0.00034923, "INCLINATION": 6.2461, "RA_OF_ASC_NODE": 72.7254, "ARG_OF_PERICENTER": 209.0939, "MEAN_ANOMALY": 299.5117, "EPHEMERIS_TYPE": 0, "CLASSIFICATION_TYPE": "U", "NORAD_CAT_ID": 41105, "ELEMENT_SET_NO": 999, "REV_AT_EPOCH": 3672, "BSTAR": 0, "MEAN_MOTION_DOT": -9.9e-07, "MEAN_MOTION_DDOT": 0}, "tle": {"line1": "1 41105U 15074A   25355.40439172 -.00000099  00000+0  00000+0 0  9995", "line2": "2 41105   6.2461  72.7254 0003492 209.0939 299.5117  1.00272503 36721"}}, "geometry": {"type": "Point", "coordinates": [163.81197593531962, 6.261140579579312]}}, {"type": "Feature", "properties": {"norad_id": 41752, "name": "INSAT-3DR", "group": "weather", "lat": 0.004187379652486313, "lon": -107.75991910396482, "alt_km": 35729.55469993293, "timestamp": "2025-12-22T05:49:03.124713+00:00", "meta": {"OBJECT_NAME": "INSAT-3DR", "OBJECT_ID": "2016-054A", "EPOCH": "2025-12-21T19:45:36.611424", "MEAN_MOTION": 1.00271543, "ECCENTRICITY": 0.0014162, "INCLINATION": 0.1136, "RA_OF_ASC_NODE": 86.2658, "ARG_OF_PERICENTER": 185.4479, "MEAN_ANOMALY": 189.3149, "EPHEMERIS_TYPE": 0, "CLASSIFICATION_TYPE": "U", "NORAD_CAT_ID": 41752, "ELEMENT_SET_NO": 999, "REV_AT_EPOCH": 3404, "BSTAR": 0, "MEAN_MOTION_DOT": -5.5e-07, "MEAN_MOTION_DDOT": 0}, "tle": {"line1": "1 41752U 16054A   25355.82334041 -.00000055  00000+0  00000+0 0  9999", "line2": "2 41752   0.1136  86.2658 0014162 185.4479 189.3149  1.00271543 34048"}}, "geometry": {"type": "Point", "coordinates": [-107.75991910396482, 0.004187379652486313]}}]}